{"fetched_at":"2026-03-29T02:12:04Z","count":15717,"tles":[{"name":"IRNSS-1A","line1":"1 39199U 13034A   26087.01364265  .00000079  00000+0  00000+0 0  9996","line2":"2 39199  35.5432  65.0278 0016621 190.5814 349.6873  1.00277123 46550","category":"Other"}]}